ONEWEB-0080             
1 45426U 20020C   25019.79490231  .00000227  00000+0  60329-3 0  9990
2 45426  87.8909 123.3911 0001798 120.3946 239.7360 13.11418104235413
ONEWEB-0090             
1 45427U 20020D   25019.81185832  .00000504  00000+0  13851-2 0  9997
2 45427  87.8912 123.3806 0001705 107.0290 253.1025 13.11416100235381
ONEWEB-0061             
1 45428U 20020E   25020.30169904 -.00000323  00000+0 -94719-3 0  9990
2 45428  87.8906 123.2718 0001672 109.1164 251.0145 13.11416062235402
ONEWEB-0081             
1 45429U 20020F   25020.35948139  .00000368  00000+0  10029-2 0  9999
2 45429  87.8908 123.2802 0001478 110.0469 250.0818 13.11417234235523
ONEWEB-0069             
1 45430U 20020G   25019.81525035  .00000467  00000+0  12825-2 0  9992
2 45430  87.8908 123.3779 0001808 108.6075 251.5249 13.11415462235381
ONEWEB-0031             
1 45431U 20020H   25020.32049014 -.00000144  00000+0 -44102-3 0  9997
2 45431  87.8917 123.2983 0001772 105.5688 254.5636 13.11418186235439
ONEWEB-0027             
1 45432U 20020J   25020.28194715  .00000090  00000+0  19980-3 0  9996
2 45432  87.9090 108.0379 0002076  99.4256 260.7110 13.17647269238816
ONEWEB-0064             
1 45433U 20020K   25020.31879158 -.00000230  00000+0 -68353-3 0  9998
2 45433  87.8912 123.2982 0001865 105.5418 254.5916 13.11417229235471
